CCSDS_OMM_VERS = 2.0
CREATION_DATE  = 
ORIGINATOR     = 

OBJECT_NAME    = SL-16 R/B
OBJECT_ID      = 1994-074B
CENTER_NAME    = EARTH
REF_FRAME      = TEME
TIME_SYSTEM    = UTC
MEAN_ELEMENT_THEORY = SGP/SGP4

EPOCH          = 2026-01-26T12:54:37.824192
MEAN_MOTION    = 14.79353378
ECCENTRICITY   = .0006739
INCLINATION    = 97.7161
RA_OF_ASC_NODE = 59.0532
ARG_OF_PERICENTER = 11.6225
MEAN_ANOMALY   = 144.0209

EPHEMERIS_TYPE = 0
CLASSIFICATION_TYPE = U
NORAD_CAT_ID   = 23343
ELEMENT_SET_NO = 999
REV_AT_EPOCH   = 68101
BSTAR          = .11671E-3
MEAN_MOTION_DOT = .82E-5
MEAN_MOTION_DDOT = 0

CCSDS_OMM_VERS = 2.0
CREATION_DATE  = 
ORIGINATOR     = 

OBJECT_NAME    = SL-16 R/B
OBJECT_ID      = 1994-077B
CENTER_NAME    = EARTH
REF_FRAME      = TEME
TIME_SYSTEM    = UTC
MEAN_ELEMENT_THEORY = SGP/SGP4

EPOCH          = 2026-01-26T12:14:10.461984
MEAN_MOTION    = 14.15558752
ECCENTRICITY   = .0004807
INCLINATION    = 70.9827
RA_OF_ASC_NODE = 81.2301
ARG_OF_PERICENTER = 250.0885
MEAN_ANOMALY   = 109.9720

EPHEMERIS_TYPE = 0
CLASSIFICATION_TYPE = U
NORAD_CAT_ID   = 23405
ELEMENT_SET_NO = 999
REV_AT_EPOCH   = 61026
BSTAR          = -.48247E-4
MEAN_MOTION_DOT = -.142E-5
MEAN_MOTION_DDOT = 0

CCSDS_OMM_VERS = 2.0
CREATION_DATE  = 
ORIGINATOR     = 

OBJECT_NAME    = ARIANE 40+ R/B
OBJECT_ID      = 1995-021B
CENTER_NAME    = EARTH
REF_FRAME      = TEME
TIME_SYSTEM    = UTC
MEAN_ELEMENT_THEORY = SGP/SGP4

EPOCH          = 2026-01-26T05:11:40.258752
MEAN_MOTION    = 14.39738237
ECCENTRICITY   = .0005607
INCLINATION    = 98.4582
RA_OF_ASC_NODE = 98.2558
ARG_OF_PERICENTER = 268.1109
MEAN_ANOMALY   = 157.7386

EPHEMERIS_TYPE = 0
CLASSIFICATION_TYPE = U
NORAD_CAT_ID   = 23561
ELEMENT_SET_NO = 999
REV_AT_EPOCH   = 61313
BSTAR          = .18591E-3
MEAN_MOTION_DOT = .539E-5
MEAN_MOTION_DDOT = 0

CCSDS_OMM_VERS = 2.0
CREATION_DATE  = 
ORIGINATOR     = 

OBJECT_NAME    = SL-16 R/B
OBJECT_ID      = 1995-058B
CENTER_NAME    = EARTH
REF_FRAME      = TEME
TIME_SYSTEM    = UTC
MEAN_ELEMENT_THEORY = SGP/SGP4

EPOCH          = 2026-01-26T08:57:42.666336
MEAN_MOTION    = 14.15488256
ECCENTRICITY   = .0013045
INCLINATION    = 71.0201
RA_OF_ASC_NODE = 269.0985
ARG_OF_PERICENTER = 194.2866
MEAN_ANOMALY   = 165.7890

EPHEMERIS_TYPE = 0
CLASSIFICATION_TYPE = U
NORAD_CAT_ID   = 23705
ELEMENT_SET_NO = 999
REV_AT_EPOCH   = 56186
BSTAR          = -.63617E-4
MEAN_MOTION_DOT = -.172E-5
MEAN_MOTION_DDOT = 0

CCSDS_OMM_VERS = 2.0
CREATION_DATE  = 
ORIGINATOR     = 

OBJECT_NAME    = SL-16 R/B
OBJECT_ID      = 1996-051B
CENTER_NAME    = EARTH
REF_FRAME      = TEME
TIME_SYSTEM    = UTC
MEAN_ELEMENT_THEORY = SGP/SGP4

EPOCH          = 2026-01-26T02:33:21.806496
MEAN_MOTION    = 14.12403725
ECCENTRICITY   = .00184292
INCLINATION    = 70.7576
RA_OF_ASC_NODE = 265.3745
ARG_OF_PERICENTER = 206.3333
MEAN_ANOMALY   = 153.6852

EPHEMERIS_TYPE = 0
CLASSIFICATION_TYPE = U
NORAD_CAT_ID   = 24298
ELEMENT_SET_NO = 999
REV_AT_EPOCH   = 51563
BSTAR          = .68556366E-4
MEAN_MOTION_DOT = .77E-6
MEAN_MOTION_DDOT = 0

CCSDS_OMM_VERS = 2.0
CREATION_DATE  = 
ORIGINATOR     = 

OBJECT_NAME    = ORBVIEW 2 (SEASTAR)
OBJECT_ID      = 1997-037A
CENTER_NAME    = EARTH
REF_FRAME      = TEME
TIME_SYSTEM    = UTC
MEAN_ELEMENT_THEORY = SGP/SGP4

EPOCH          = 2026-01-26T10:57:42.340320
MEAN_MOTION    = 14.35459288
ECCENTRICITY   = .0002402
INCLINATION    = 98.8496
RA_OF_ASC_NODE = 189.6670
ARG_OF_PERICENTER = 161.1194
MEAN_ANOMALY   = 199.0080

EPHEMERIS_TYPE = 0
CLASSIFICATION_TYPE = U
NORAD_CAT_ID   = 24883
ELEMENT_SET_NO = 999
REV_AT_EPOCH   = 50241
BSTAR          = .22088E-3
MEAN_MOTION_DOT = .588E-5
MEAN_MOTION_DDOT = 0

CCSDS_OMM_VERS = 2.0
CREATION_DATE  = 
ORIGINATOR     = 

OBJECT_NAME    = SL-16 R/B
OBJECT_ID      = 1998-043G
CENTER_NAME    = EARTH
REF_FRAME      = TEME
TIME_SYSTEM    = UTC
MEAN_ELEMENT_THEORY = SGP/SGP4

EPOCH          = 2026-01-26T11:50:02.252832
MEAN_MOTION    = 14.26038730
ECCENTRICITY   = .0010584
INCLINATION    = 98.8187
RA_OF_ASC_NODE = 339.5761
ARG_OF_PERICENTER = 132.5324
MEAN_ANOMALY   = 227.6751

EPHEMERIS_TYPE = 0
CLASSIFICATION_TYPE = U
NORAD_CAT_ID   = 25400
ELEMENT_SET_NO = 999
REV_AT_EPOCH   = 43297
BSTAR          = .82295E-4
MEAN_MOTION_DOT = .151E-5
MEAN_MOTION_DDOT = 0

CCSDS_OMM_VERS = 2.0
CREATION_DATE  = 
ORIGINATOR     = 

OBJECT_NAME    = SL-16 R/B
OBJECT_ID      = 1998-045B
CENTER_NAME    = EARTH
REF_FRAME      = TEME
TIME_SYSTEM    = UTC
MEAN_ELEMENT_THEORY = SGP/SGP4

EPOCH          = 2026-01-26T02:56:35.708928
MEAN_MOTION    = 14.16186953
ECCENTRICITY   = .00051013
INCLINATION    = 71.0107
RA_OF_ASC_NODE = 271.0925
ARG_OF_PERICENTER = 90.6925
MEAN_ANOMALY   = 269.4783

EPHEMERIS_TYPE = 0
CLASSIFICATION_TYPE = U
NORAD_CAT_ID   = 25407
ELEMENT_SET_NO = 999
REV_AT_EPOCH   = 42107
BSTAR          = .73849929E-4
MEAN_MOTION_DOT = .99E-6
MEAN_MOTION_DDOT = 0

CCSDS_OMM_VERS = 2.0
CREATION_DATE  = 
ORIGINATOR     = 

OBJECT_NAME    = ISS (ZARYA)
OBJECT_ID      = 1998-067A
CENTER_NAME    = EARTH
REF_FRAME      = TEME
TIME_SYSTEM    = UTC
MEAN_ELEMENT_THEORY = SGP/SGP4

EPOCH          = 2026-01-26T04:12:04.882464
MEAN_MOTION    = 15.48192939
ECCENTRICITY   = .001106
INCLINATION    = 51.6321
RA_OF_ASC_NODE = 282.5143
ARG_OF_PERICENTER = 31.3623
MEAN_ANOMALY   = 328.8022

EPHEMERIS_TYPE = 0
CLASSIFICATION_TYPE = U
NORAD_CAT_ID   = 25544
ELEMENT_SET_NO = 999
REV_AT_EPOCH   = 54974
BSTAR          = .24608E-3
MEAN_MOTION_DOT = .12778E-3
MEAN_MOTION_DDOT = 0

CCSDS_OMM_VERS = 2.0
CREATION_DATE  = 
ORIGINATOR     = 

OBJECT_NAME    = CZ-4B R/B
OBJECT_ID      = 1999-025C
CENTER_NAME    = EARTH
REF_FRAME      = TEME
TIME_SYSTEM    = UTC
MEAN_ELEMENT_THEORY = SGP/SGP4

EPOCH          = 2026-01-26T09:31:39.853920
MEAN_MOTION    = 14.18256184
ECCENTRICITY   = .0038178
INCLINATION    = 98.6707
RA_OF_ASC_NODE = 71.6646
ARG_OF_PERICENTER = 106.2498
MEAN_ANOMALY   = 264.7257

EPHEMERIS_TYPE = 0
CLASSIFICATION_TYPE = U
NORAD_CAT_ID   = 25732
ELEMENT_SET_NO = 999
REV_AT_EPOCH   = 38217
BSTAR          = .70132E-4
MEAN_MOTION_DOT = .103E-5
MEAN_MOTION_DDOT = 0

CCSDS_OMM_VERS = 2.0
CREATION_DATE  = 
ORIGINATOR     = 

OBJECT_NAME    = OKEAN-O
OBJECT_ID      = 1999-039A
CENTER_NAME    = EARTH
REF_FRAME      = TEME
TIME_SYSTEM    = UTC
MEAN_ELEMENT_THEORY = SGP/SGP4

EPOCH          = 2026-01-26T09:43:18.963840
MEAN_MOTION    = 14.80259215
ECCENTRICITY   = .0001903
INCLINATION    = 97.9532
RA_OF_ASC_NODE = 86.7069
ARG_OF_PERICENTER = 98.0637
MEAN_ANOMALY   = 262.0791

EPHEMERIS_TYPE = 0
CLASSIFICATION_TYPE = U
NORAD_CAT_ID   = 25860
ELEMENT_SET_NO = 999
REV_AT_EPOCH   = 42813
BSTAR          = .17172E-3
MEAN_MOTION_DOT = .1255E-4
MEAN_MOTION_DDOT = 0

CCSDS_OMM_VERS = 2.0
CREATION_DATE  = 
ORIGINATOR     = 

OBJECT_NAME    = SL-16 R/B
OBJECT_ID      = 1999-039B
CENTER_NAME    = EARTH
REF_FRAME      = TEME
TIME_SYSTEM    = UTC
MEAN_ELEMENT_THEORY = SGP/SGP4

EPOCH          = 2026-01-26T10:11:58.081920
MEAN_MOTION    = 14.81666285
ECCENTRICITY   = .001563
INCLINATION    = 98.0057
RA_OF_ASC_NODE = 85.5650
ARG_OF_PERICENTER = 38.9851
MEAN_ANOMALY   = 321.2485

EPHEMERIS_TYPE = 0
CLASSIFICATION_TYPE = U
NORAD_CAT_ID   = 25861
ELEMENT_SET_NO = 999
REV_AT_EPOCH   = 43060
BSTAR          = .13569E-3
MEAN_MOTION_DOT = .1016E-4
MEAN_MOTION_DDOT = 0

CCSDS_OMM_VERS = 2.0
CREATION_DATE  = 
ORIGINATOR     = 

OBJECT_NAME    = DELTA 2 R/B
OBJECT_ID      = 1999-041E
CENTER_NAME    = EARTH
REF_FRAME      = TEME
TIME_SYSTEM    = UTC
MEAN_ELEMENT_THEORY = SGP/SGP4

EPOCH          = 2026-01-26T09:21:49.684896
MEAN_MOTION    = 14.11637554
ECCENTRICITY   = .0502848
INCLINATION    = 51.7628
RA_OF_ASC_NODE = 110.1891
ARG_OF_PERICENTER = 223.4420
MEAN_ANOMALY   = 132.5844

EPHEMERIS_TYPE = 0
CLASSIFICATION_TYPE = U
NORAD_CAT_ID   = 25876
ELEMENT_SET_NO = 999
REV_AT_EPOCH   = 35705
BSTAR          = .68044E-3
MEAN_MOTION_DOT = .4001E-4
MEAN_MOTION_DDOT = 0

CCSDS_OMM_VERS = 2.0
CREATION_DATE  = 
ORIGINATOR     = 

OBJECT_NAME    = HELIOS 1B
OBJECT_ID      = 1999-064A
CENTER_NAME    = EARTH
REF_FRAME      = TEME
TIME_SYSTEM    = UTC
MEAN_ELEMENT_THEORY = SGP/SGP4

EPOCH          = 2026-01-26T11:20:38.936832
MEAN_MOTION    = 14.87508474
ECCENTRICITY   = .000137
INCLINATION    = 98.1733
RA_OF_ASC_NODE = 287.4676
ARG_OF_PERICENTER = 131.5955
MEAN_ANOMALY   = 228.5377

EPHEMERIS_TYPE = 0
CLASSIFICATION_TYPE = U
NORAD_CAT_ID   = 25977
ELEMENT_SET_NO = 999
REV_AT_EPOCH   = 67898
BSTAR          = .37609E-3
MEAN_MOTION_DOT = .3352E-4
MEAN_MOTION_DDOT = 0

CCSDS_OMM_VERS = 2.0
CREATION_DATE  = 
ORIGINATOR     = 

OBJECT_NAME    = TERRA
OBJECT_ID      = 1999-068A
CENTER_NAME    = EARTH
REF_FRAME      = TEME
TIME_SYSTEM    = UTC
MEAN_ELEMENT_THEORY = SGP/SGP4

EPOCH          = 2026-01-26T10:58:51.257280
MEAN_MOTION    = 14.60964396
ECCENTRICITY   = .0001548
INCLINATION    = 97.9681
RA_OF_ASC_NODE = 81.4868
ARG_OF_PERICENTER = 349.1064
MEAN_ANOMALY   = 67.6321

EPHEMERIS_TYPE = 0
CLASSIFICATION_TYPE = U
NORAD_CAT_ID   = 25994
ELEMENT_SET_NO = 999
REV_AT_EPOCH   = 38891
BSTAR          = .16774E-3
MEAN_MOTION_DOT = .778E-5
MEAN_MOTION_DDOT = 0

